{
  "norad_id": 68730,
  "name": "STARLINK-37230",
  "history": [
    {
      "epoch": "2026-04-23T13:18:41.548320Z",
      "apogee_km": 328.65813229863306,
      "perigee_km": 326.82085625673153,
      "latitude_deg": 2.5480210335335883e-05,
      "longitude_deg": -75.6033282125199,
      "height_km": 330.9846235712521,
      "semi_major_axis_km": 6705.8764942776825,
      "eccentricity": 0.00013699,
      "inclination_deg": 97.2893,
      "raan_deg": 335.67,
      "arg_perigee_deg": 94.4557,
      "mean_anomaly_deg": 265.6868,
      "mean_motion_rev_day": 15.80954737
    }
  ]
}