STARLINK-37230          
1 68730U 26082C   26113.55464755 -.00273198  00000+0 -14612-2 0  9993
2 68730  97.2893 335.6700 0001369  94.4557 265.6868 15.80954737  1181
